NORAD_CAT_ID,OBJECT_NAME,OBJECT_TYPE,EPOCH,MEAN_MOTION,ECCENTRICITY,INCLINATION,RA_OF_ASC_NODE,ARG_OF_PERICENTER,MEAN_ANOMALY,BSTAR,MEAN_MOTION_DOT,MEAN_MOTION_DDOT,TLE_LINE0,TLE_LINE1,TLE_LINE2,SEMIMAJOR_AXIS,PERIOD,APOGEE,PERIGEE,DECAYED
49171.0,STARLINK-3107,PAYLOAD,2022-01-29 06:00:00,14.98338616,0.000342,70.0014,117.5956,271.5464,210.8587,0.00083024,9.83e-05,0.0,0 STARLINK-3107,1 49171U 21082AT  22029.25001157  .00009830  00000-0  83024-3 0  9991,2 49171  70.0014 117.5956 0003420 271.5464 210.8587 14.98338616 22383,6950.166,96.106,574.408,569.654,0.0
49171.0,STARLINK-3107,PAYLOAD,2022-01-29 14:00:01,14.98327498,0.0003497,70.0015,116.7552,277.0202,202.8888,0.0019715,0.00023509,0.0,0 STARLINK-3107,1 49171U 21082AT  22029.58334491  .00023509  00000-0  19715-2 0  9991,2 49171  70.0015 116.7552 0003497 277.0202 202.8888 14.98327498  3584,6950.201,96.107,574.496,569.635,0.0
49171.0,STARLINK-3107,PAYLOAD,2022-01-29 22:00:00,14.98357966,0.000347,70.0012,115.9147,275.1124,202.2875,-0.0031965,-0.00038056,0.0,0 STARLINK-3107,1 49171U 21082AT  22029.91667824 -.00038056  00000-0 -31965-2 0  9993,2 49171  70.0012 115.9147 0003470 275.1124 202.2875 14.98357966  3588,6950.106,96.105,574.383,569.56,0.0
49171.0,STARLINK-3107,PAYLOAD,2022-01-30 06:00:00,14.98359812,0.0003433,70.0016,115.0743,271.3983,203.5002,-0.0032241999999999,-0.00038385,0.0,0 STARLINK-3107,1 49171U 21082AT  22030.25001157 -.00038385  00000-0 -32242-2 0  9997,2 49171  70.0016 115.0743 0003433 271.3983 203.5002 14.98359812 22539,6950.101,96.105,574.352,569.58,0.0
49171.0,STARLINK-3107,PAYLOAD,2022-01-30 14:00:01,14.98312511,0.000346,70.0017,114.2339,276.9574,195.4487,0.0022477,0.00026818,0.0,0 STARLINK-3107,1 49171U 21082AT  22030.58334491  .00026818  00000-0  22477-2 0  9998,2 49171  70.0017 114.2339 0003460 276.9574 195.4487 14.98312511  3584,6950.246999999999,96.108,574.5169999999998,569.707,0.0
49171.0,STARLINK-3107,PAYLOAD,2022-01-30 22:00:00,14.98340171,0.0003458,70.0014,113.3934,274.8417,195.037,-0.0025955,-0.00030935,0.0,0 STARLINK-3107,1 49171U 21082AT  22030.91667824 -.00030935  00000-0 -25955-2 0  9995,2 49171  70.0014 113.3934 0003458 274.8417 195.0370 14.98340171 22639,6950.161,96.106,574.43,569.623,0.0
49171.0,STARLINK-3107,PAYLOAD,2022-01-31 14:00:01,14.98334879,0.000349,70.0016,111.7126,277.3476,187.573,-0.00047316,-5.735e-05,0.0,0 STARLINK-3107,1 49171U 21082AT  22031.58335648 -.00005735  00000-0 -47316-3 0  9991,2 49171  70.0016 111.7126 0003490 277.3476 187.5730 14.98334879 22730,6950.178000000001,96.107,574.4680000000002,569.617,0.0
49171.0,STARLINK-3107,PAYLOAD,2022-01-31 22:00:01,14.98324561,0.0003393,70.0014,110.8721,275.0834,187.3284,-0.0021797,-0.00026002,0.0,0 STARLINK-3107,1 49171U 21082AT  22031.91668981 -.00026002  00000-0 -21797-2 0  9991,2 49171  70.0014 110.8721 0003393 275.0834 187.3284 14.98324561  3574,6950.21,96.107,574.433,569.717,0.0
49171.0,STARLINK-3107,PAYLOAD,2022-02-01 14:00:01,14.98311181,0.0003455,70.0014,109.1914,278.0709,179.2974,0.0030958,0.00037024,0.0,0 STARLINK-3107,1 49171U 21082AT  22032.58335648  .00037024  00000-0  30958-2 0  9999,2 49171  70.0014 109.1914 0003455 278.0709 179.2974 14.98311181  3572,6950.251,96.108,574.5169999999998,569.715,0.0
49171.0,STARLINK-3107,PAYLOAD,2022-02-01 22:00:00,14.98337149,0.0003381,70.0011,108.3509,275.525,179.25799999999995,-0.0015951,-0.00019078,0.0,0 STARLINK-3107,1 49171U 21082AT  22032.91667824 -.00019078  00000-0 -15951-2 0  9997,2 49171  70.0011 108.3509 0003381 275.5250 179.2580 14.98337149 22937,6950.170999999999,96.107,574.386,569.686,0.0
49171.0,STARLINK-3107,PAYLOAD,2022-02-02 14:00:01,14.98292451,0.0003327,70.001,106.67,279.3542,170.4094,0.0032048,0.00038319,0.0,0 STARLINK-3107,1 49171U 21082AT  22033.58334491  .00038319  00000-0  32048-2 0  9995,2 49171  70.0010 106.6700 0003327 279.3542 170.4094 14.98292451  3585,6950.309,96.109,574.486,569.862,0.0
49171.0,STARLINK-3107,PAYLOAD,2022-02-02 22:00:00,14.98314204,0.000325,70.0006,105.8295,276.2365,170.9838,-0.0011174,-0.00013395,0.0,0 STARLINK-3107,1 49171U 21082AT  22033.91667824 -.00013395  00000-0 -11174-2 0  9997,2 49171  70.0006 105.8295 0003250 276.2365 170.9838 14.98314204 23083,6950.2419999999975,96.108,574.366,569.8480000000002,0.0
49171.0,STARLINK-3107,PAYLOAD,2022-02-03 14:00:01,14.98302313,0.0003341,70.0007,104.1484,279.8318,162.3253,0.0031405,0.00037554,0.0,0 STARLINK-3107,1 49171U 21082AT  22034.58334491  .00037554  00000-0  31405-2 0  9992,2 49171  70.0007 104.1484 0003341 279.8318 162.3253 14.98302313 23189,6950.279,96.109,574.466,569.821,0.0
49171.0,STARLINK-3107,PAYLOAD,2022-02-03 22:00:01,14.98323885,0.0003276999999999,70.0002,103.3078,276.1349,163.5638,-0.00036161,-4.404e-05,0.0,0 STARLINK-3107,1 49171U 21082AT  22034.91668981 -.00004404  00000-0 -36161-3 0  9998,2 49171  70.0002 103.3078 0003277 276.1349 163.5638 14.98323885  3585,6950.212,96.107,574.354,569.799,0.0
49171.0,STARLINK-3107,PAYLOAD,2022-02-04 14:00:01,14.98326291,0.0003388,70.0004,101.6265,279.3216,155.3672,0.0035969,0.00043086,0.0,0 STARLINK-3107,1 49171U 21082AT  22035.58335648  .00043086  00000-0  35969-2 0  9994,2 49171  70.0004 101.6265 0003388 279.3216 155.3672 14.98326291 23333,6950.204000000002,96.107,574.424,569.715,0.0
49171.0,STARLINK-3107,PAYLOAD,2022-02-04 22:00:00,14.98352325,0.000331,70.0,100.786,275.7295,156.3945,-0.0026855,-0.00032009,0.0,0 STARLINK-3107,1 49171U 21082AT  22035.91667824 -.00032009  00000-0 -26855-2 0  9994,2 49171  70.0000 100.7860 0003310 275.7295 156.3945 14.98352325  3577,6950.124,96.106,574.289,569.688,0.0
49171.0,STARLINK-3107,PAYLOAD,2022-02-05 06:00:00,14.98347045,0.0003285,70.0003,99.9454,273.7137,155.9041,-0.00178,-0.00021277,0.0,0 STARLINK-3107,1 49171U 21082AT  22036.25001157 -.00021277  00000-0 -17800-2 0  9998,2 49171  70.0003  99.9454 0003285 273.7137 155.9041 14.98347045 23434,6950.14,96.106,574.288,569.722,0.0
49171.0,STARLINK-3107,PAYLOAD,2022-02-05 14:00:01,14.98277191,0.0003182,70.0001,99.1047,280.2811,146.7851,0.0037382,0.00044736,0.0,0 STARLINK-3107,1 49171U 21082AT  22036.58334491  .00044736  00000-0  37382-2 0  9994,2 49171  70.0001  99.1047 0003182 280.2811 146.7851 14.98277191 23486,6950.356,96.11,574.433,570.01,0.0
49171.0,STARLINK-3107,PAYLOAD,2022-02-06 06:00:00,14.98328924,0.0003208999999999,70.0003,97.4238,274.8212,147.1158,-0.0022784,-0.00027173,0.0,0 STARLINK-3107,1 49171U 21082AT  22037.25001157 -.00027173  00000-0 -22784-2 0  9997,2 49171  70.0003  97.4238 0003209 274.8212 147.1158 14.98328924 23582,6950.196,96.107,574.2919999999998,569.831,0.0
49171.0,STARLINK-3107,PAYLOAD,2022-02-06 14:00:01,14.98288804,0.0003251,70.0002,96.5832,280.4117,139.0551,0.0037006,0.00044295,0.0,0 STARLINK-3107,1 49171U 21082AT  22037.58335648  .00044295  00000-0  37006-2 0  9993,2 49171  70.0002  96.5832 0003251 280.4117 139.0551 14.98288804  3571,6950.32,96.11,574.445,569.9259999999998,0.0
49171.0,STARLINK-3107,PAYLOAD,2022-02-06 22:00:00,14.98295629,0.0003208999999999,70.0003,95.7428,276.4189,140.4416,0.0016421,0.00019538,0.0,0 STARLINK-3107,1 49171U 21082AT  22037.91667824  .00019538  00000-0  16421-2 0  9994,2 49171  70.0003  95.7428 0003209 276.4189 140.4416 14.98295629  3570,6950.299,96.109,574.395,569.934,0.0
49171.0,STARLINK-3107,PAYLOAD,2022-02-07 06:00:00,14.98340386,0.0003273999999999,70.0006,94.9024,275.5418,138.76,-0.0030336,-0.00036114,0.0,0 STARLINK-3107,1 49171U 21082AT  22038.25001157 -.00036114  00000-0 -30336-2 0  9995,2 49171  70.0006  94.9024 0003274 275.5418 138.7600 14.98340386 23739,6950.161,96.106,574.3009999999998,569.75,0.0
49171.0,STARLINK-3107,PAYLOAD,2022-02-07 14:00:01,14.98288987,0.000333,70.0004,94.0619,280.8705,130.9153,0.0072729,0.00087689,0.0,0 STARLINK-3107,1 49171U 21082AT  22038.58334491  .00087689  00000-0  72729-2 0  9994,2 49171  70.0004  94.0619 0003330 280.8705 130.9153 14.98288987  3574,6950.32,96.11,574.499,569.87,0.0
49171.0,STARLINK-3107,PAYLOAD,2022-02-07 22:00:00,14.98329489,0.0003318,70.0004,93.2216,276.7346,132.52700000000002,0.0021575,0.00025745,0.0,0 STARLINK-3107,1 49171U 21082AT  22038.91667824  .00025745  00000-0  21575-2 0  9998,2 49171  70.0004  93.2216 0003318 276.7346 132.5270 14.98329489 23831,6950.194,96.107,574.366,569.753,0.0
49171.0,STARLINK-3107,PAYLOAD,2022-02-08 14:00:01,14.98338944,0.0003391,70.0005,91.5406,281.8379,122.4353,0.00315,0.00037705,0.0,0 STARLINK-3107,1 49171U 21082AT  22039.58334491  .00037705  00000-0  31500-2 0  9991,2 49171  70.0005  91.5406 0003391 281.8379 122.4353 14.98338944  3584,6950.165,96.106,574.387,569.673,0.0
49171.0,STARLINK-3107,PAYLOAD,2022-02-08 22:00:01,14.98335095,0.000329,70.0005,90.7002,277.2235,124.6307,0.0027817,0.00033261,0.0,0 STARLINK-3107,1 49171U 21082AT  22039.91668981  .00033261  00000-0  27817-2 0  9991,2 49171  70.0005  90.7002 0003290 277.2235 124.6307 14.98335095 23988,6950.177,96.107,574.3290000000002,569.756,0.0
49171.0,STARLINK-3107,PAYLOAD,2022-02-09 13:50:12,14.98365173,0.0003242,70.0008,89.0363,277.3686,82.7105,0.00061139,7.216e-05,0.0,0 STARLINK-3107,1 49171U 21082AT  22040.57653161  .00007216  00000-0  61139-3 0  9996,2 49171  70.0008  89.0363 0003242 277.3686  82.7105 14.98365173 24082,6950.084,96.105,574.202,569.696,0.0
49171.0,STARLINK-3107,PAYLOAD,2022-02-09 14:00:01,14.98324341,0.0003278,70.0007,89.0191,282.6926,114.1272,0.0027464,0.00032826,0.0,0 STARLINK-3107,1 49171U 21082AT  22040.58334491  .00032826  00000-0  27464-2 0  9996,2 49171  70.0007  89.0191 0003278 282.6926 114.1272 14.98324341 24082,6950.21,96.107,574.354,569.797,0.0
49171.0,STARLINK-3107,PAYLOAD,2022-02-10 06:00:00,14.98366881,0.0003264,70.001,87.3383,277.2091,114.5838,-0.0031713,-0.00037766,0.0,0 STARLINK-3107,1 49171U 21082AT  22041.25001157 -.00037766  00000-0 -31713-2 0  9993,2 49171  70.0010  87.3383 0003264 277.2091 114.5838 14.98366881 24186,6950.079000000002,96.105,574.212,569.675,0.0
